{
  "type": "FeatureCollection",
  "features": [
    {
      "type": "Feature",
      "properties": {
        "norad_id": 27954,
        "name": "GALAXY 13 (HORIZONS-1)",
        "group": "intelsat",
        "lat": 0.3607483153229118,
        "lon": -117.51678302188732,
        "alt_km": 35777.494449216705,
        "timestamp": "2025-12-13T20:38:50.662686+00:00",
        "meta_object_name": "GALAXY 13 (HORIZONS-1)",
        "meta_object_id": "2003-044A",
        "meta_epoch": "2025-12-13T04:21:38.702880",
        "meta_mean_motion": 1.00271742,
        "meta_eccentricity": 0.00020548,
        "meta_inclination": 0.9368,
        "meta_ra_of_asc_node": 86.4626,
        "meta_arg_of_pericenter": 169.0831,
        "meta_mean_anomaly": 101.9779,
        "meta_ephemeris_type": 0,
        "meta_classification_type": "U",
        "meta_norad_cat_id": 27954,
        "meta_element_set_no": 999,
        "meta_rev_at_epoch": 4470,
        "meta_bstar": 0,
        "meta_mean_motion_dot": 1.46e-06,
        "meta_mean_motion_ddot": 0,
        "tle_line1": "1 27954U 03044A   25347.18169795  .00000146  00000+0  00000+0 0  9994",
        "tle_line2": "2 27954   0.9368  86.4626 0002054 169.0831 101.9779  1.00271742 44709"
      },
      "geometry": {
        "type": "Point",
        "coordinates": [
          -117.51678302188732,
          0.3607483153229118
        ]
      }
    },
    {
      "type": "Feature",
      "properties": {
        "norad_id": 28358,
        "name": "INTELSAT 10-02",
        "group": "intelsat",
        "lat": 0.0030424780625850365,
        "lon": 31.535412072793527,
        "alt_km": 35786.898039798296,
        "timestamp": "2025-12-13T20:38:50.662699+00:00",
        "meta_object_name": "INTELSAT 10-02",
        "meta_object_id": "2004-022A",
        "meta_epoch": "2025-12-13T04:53:05.999424",
        "meta_mean_motion": 1.0027108,
        "meta_eccentricity": 0.00010711,
        "meta_inclination": 0.0235,
        "meta_ra_of_asc_node": 65.5533,
        "meta_arg_of_pericenter": 227.9966,
        "meta_mean_anomaly": 220.8997,
        "meta_ephemeris_type": 0,
        "meta_classification_type": "U",
        "meta_norad_cat_id": 28358,
        "meta_element_set_no": 999,
        "meta_rev_at_epoch": 7869,
        "meta_bstar": 0,
        "meta_mean_motion_dot": 3e-08,
        "meta_mean_motion_ddot": 0,
        "tle_line1": "1 28358U 04022A   25347.20354166  .00000003  00000+0  00000+0 0  9993",
        "tle_line2": "2 28358   0.0235  65.5533 0001071 227.9966 220.8997  1.00271080 78691"
      },
      "geometry": {
        "type": "Point",
        "coordinates": [
          31.535412072793527,
          0.0030424780625850365
        ]
      }
    },
    {
      "type": "Feature",
      "properties": {
        "norad_id": 28626,
        "name": "XM-3 (RHYTHM)",
        "group": "intelsat",
        "lat": 0.15723414472399402,
        "lon": 141.49936955205348,
        "alt_km": 36165.87618887076,
        "timestamp": "2025-12-13T20:38:50.662726+00:00",
        "meta_object_name": "XM-3 (RHYTHM)",
        "meta_object_id": "2005-008A",
        "meta_epoch": "2025-12-13T05:25:02.938944",
        "meta_mean_motion": 0.98952253,
        "meta_eccentricity": 0.00015841,
        "meta_inclination": 0.1761,
        "meta_ra_of_asc_node": 81.5909,
        "meta_arg_of_pericenter": 271.7006,
        "meta_mean_anomaly": 282.1474,
        "meta_ephemeris_type": 0,
        "meta_classification_type": "U",
        "meta_norad_cat_id": 28626,
        "meta_element_set_no": 999,
        "meta_rev_at_epoch": 4075,
        "meta_bstar": 0,
        "meta_mean_motion_dot": -1.33e-06,
        "meta_mean_motion_ddot": 0,
        "tle_line1": "1 28626U 05008A   25347.22572846 -.00000133  00000+0  00000+0 0  9990",
        "tle_line2": "2 28626   0.1761  81.5909 0001584 271.7006 282.1474  0.98952253 40751"
      },
      "geometry": {
        "type": "Point",
        "coordinates": [
          141.49936955205348,
          0.15723414472399402
        ]
      }
    },
    {
      "type": "Feature",
      "properties": {
        "norad_id": 28659,
        "name": "DIRECTV 8",
        "group": "intelsat",
        "lat": -0.0215103715565187,
        "lon": -86.54965801367449,
        "alt_km": 35773.42512673593,
        "timestamp": "2025-12-13T20:38:50.662740+00:00",
        "meta_object_name": "DIRECTV 8",
        "meta_object_id": "2005-019A",
        "meta_epoch": "2025-12-13T07:09:25.060608",
        "meta_mean_motion": 1.00271994,
        "meta_eccentricity": 0.00029881,
        "meta_inclination": 0.0229,
        "meta_ra_of_asc_node": 66.6292,
        "meta_arg_of_pericenter": 200.7634,
        "meta_mean_anomaly": 163.1511,
        "meta_ephemeris_type": 0,
        "meta_classification_type": "U",
        "meta_norad_cat_id": 28659,
        "meta_element_set_no": 999,
        "meta_rev_at_epoch": 7520,
        "meta_bstar": 0,
        "meta_mean_motion_dot": 1.5e-07,
        "meta_mean_motion_ddot": 0,
        "tle_line1": "1 28659U 05019A   25347.29820672  .00000015  00000+0  00000+0 0  9996",
        "tle_line2": "2 28659   0.0229  66.6292 0002988 200.7634 163.1511  1.00271994 75200"
      },
      "geometry": {
        "type": "Point",
        "coordinates": [
          -86.54965801367449,
          -0.0215103715565187
        ]
      }
    },
    {
      "type": "Feature",
      "properties": {
        "norad_id": 28702,
        "name": "GALAXY 28 (G-28)",
        "group": "intelsat",
        "lat": -1.919821793345695,
        "lon": -56.20821033660972,
        "alt_km": 35777.01594484738,
        "timestamp": "2025-12-13T20:38:50.662753+00:00",
        "meta_object_name": "GALAXY 28 (G-28)",
        "meta_object_id": "2005-022A",
        "meta_epoch": "2025-12-13T06:38:38.641632",
        "meta_mean_motion": 1.00271727,
        "meta_eccentricity": 0.00028187,
        "meta_inclination": 2.8202,
        "meta_ra_of_asc_node": 81.2761,
        "meta_arg_of_pericenter": 184.3592,
        "meta_mean_anomaly": 187.55,
        "meta_ephemeris_type": 0,
        "meta_classification_type": "U",
        "meta_norad_cat_id": 28702,
        "meta_element_set_no": 999,
        "meta_rev_at_epoch": 5011,
        "meta_bstar": 0,
        "meta_mean_motion_dot": -1.74e-06,
        "meta_mean_motion_ddot": 0,
        "tle_line1": "1 28702U 05022A   25347.27683613 -.00000174  00000+0  00000+0 0  9996",
        "tle_line2": "2 28702   2.8202  81.2761 0002818 184.3592 187.5500  1.00271727 50111"
      },
      "geometry": {
        "type": "Point",
        "coordinates": [
          -56.20821033660972,
          -1.919821793345695
        ]
      }
    },
    {
      "type": "Feature",
      "properties": {
        "norad_id": 29236,
        "name": "GALAXY 16 (G-16)",
        "group": "intelsat",
        "lat": -0.000622146596572692,
        "lon": -66.49684085588484,
        "alt_km": 35776.6840870935,
        "timestamp": "2025-12-13T20:38:50.662765+00:00",
        "meta_object_name": "GALAXY 16 (G-16)",
        "meta_object_id": "2006-023A",
        "meta_epoch": "2025-12-13T07:06:14.793984",
        "meta_mean_motion": 1.00272354,
        "meta_eccentricity": 0.0002596,
        "meta_inclination": 0.0524,
        "meta_ra_of_asc_node": 135.2976,
        "meta_arg_of_pericenter": 125.5592,
        "meta_mean_anomaly": 188.9317,
        "meta_ephemeris_type": 0,
        "meta_classification_type": "U",
        "meta_norad_cat_id": 29236,
        "meta_element_set_no": 999,
        "meta_rev_at_epoch": 7110,
        "meta_bstar": 0,
        "meta_mean_motion_dot": -1.13e-06,
        "meta_mean_motion_ddot": 0,
        "tle_line1": "1 29236U 06023A   25347.29600456 -.00000113  00000+0  00000+0 0  9990",
        "tle_line2": "2 29236   0.0524 135.2976 0002596 125.5592 188.9317  1.00272354 71109"
      },
      "geometry": {
        "type": "Point",
        "coordinates": [
          -66.49684085588484,
          -0.000622146596572692
        ]
      }
    },
    {
      "type": "Feature",
      "properties": {
        "norad_id": 29494,
        "name": "DIRECTV 9S",
        "group": "intelsat",
        "lat": -0.9297689048294431,
        "lon": -68.71839868295753,
        "alt_km": 35774.85704831903,
        "timestamp": "2025-12-13T20:38:50.662777+00:00",
        "meta_object_name": "DIRECTV 9S",
        "meta_object_id": "2006-043A",
        "meta_epoch": "2025-12-13T07:06:38.794176",
        "meta_mean_motion": 1.0027191,
        "meta_eccentricity": 0.00029661,
        "meta_inclination": 1.9418,
        "meta_ra_of_asc_node": 83.2052,
        "meta_arg_of_pericenter": 182.5376,
        "meta_mean_anomaly": 181.9374,
        "meta_ephemeris_type": 0,
        "meta_classification_type": "U",
        "meta_norad_cat_id": 29494,
        "meta_element_set_no": 999,
        "meta_rev_at_epoch": 4952,
        "meta_bstar": 0,
        "meta_mean_motion_dot": -1e-06,
        "meta_mean_motion_ddot": 0,
        "tle_line1": "1 29494U 06043A   25347.29628234 -.00000100  00000+0  00000+0 0  9998",
        "tle_line2": "2 29494   1.9418  83.2052 0002966 182.5376 181.9374  1.00271910 49522"
      },
      "geometry": {
        "type": "Point",
        "coordinates": [
          -68.71839868295753,
          -0.9297689048294431
        ]
      }
    }
  ]
}